QZS-1R                  
1 49336U 21096A   23298.83002596 -.00000200  00000+0  00000+0 0  9991
2 49336  35.4610  94.1259 0747634 270.1875 103.6692  1.00274557  7338
